{"type": "FeatureCollection", "features": [ {"type": "Feature", "properties": {"norad_id": 29868, "name": "FENGYUN 1C DEB", "group": "fengyun-1c-debris", "lat": 4.038365122706076, "lon": -131.89696157930754, "alt_km": 737.9932624983403, "timestamp": "2025-12-27T23:26:37.634596+00:00", "meta": {"OBJECT_NAME": "FENGYUN 1C DEB", "OBJECT_ID": "1999-025FN", "EPOCH": "2025-12-27T01:46:56.911584", "MEAN_MOTION": 14.78612646, "ECCENTRICITY": 0.01952245, "INCLINATION": 97.9482, "RA_OF_ASC_NODE": 46.646, "ARG_OF_PERICENTER": 317.5433, "MEAN_ANOMALY": 98.3413, "EPHEMERIS_TYPE": 0, "CLASSIFICATION_TYPE": "U", "NORAD_CAT_ID": 29868, "ELEMENT_SET_NO": 999, "REV_AT_EPOCH": 507, "BSTAR": 0.00084206104, "MEAN_MOTION_DOT": 8.444e-05, "MEAN_MOTION_DDOT": 0}, "tle": {"line1": "1 29868U 99025FN  25361.07426981  .00008444  00000+0  84206-3 0  9994", "line2": "2 29868  97.9482  46.6460 0195224 317.5433  98.3413 14.78612646  5074"}}, "geometry": {"type": "Point", "coordinates": [-131.89696157930754, 4.038365122706076]}}, {"type": "Feature", "properties": {"norad_id": 29869, "name": "FENGYUN 1C DEB", "group": "fengyun-1c-debris", "lat": 66.47721005953848, "lon": 133.77702572684396, "alt_km": 813.1851967975299, "timestamp": "2025-12-27T23:26:37.634606+00:00", "meta": {"OBJECT_NAME": "FENGYUN 1C DEB", "OBJECT_ID": "1999-025FP", "EPOCH": "2025-12-27T06:58:21.824832", "MEAN_MOTION": 14.36922307, "ECCENTRICITY": 0.0086796, "INCLINATION": 98.8748, "RA_OF_ASC_NODE": 292.0338, "ARG_OF_PERICENTER": 328.2503, "MEAN_ANOMALY": 194.8913, "EPHEMERIS_TYPE": 0, "CLASSIFICATION_TYPE": "U", "NORAD_CAT_ID": 29869, "ELEMENT_SET_NO": 999, "REV_AT_EPOCH": 99029, "BSTAR": 0.00048127, "MEAN_MOTION_DOT": 1.439e-05, "MEAN_MOTION_DDOT": 0}, "tle": {"line1": "1 29869U 99025FP  25361.29053038  .00001439  00000+0  48127-3 0  9997", "line2": "2 29869  98.8748 292.0338 0086796 328.2503 194.8913 14.36922307990297"}}, "geometry": {"type": "Point", "coordinates": [133.77702572684396, 66.47721005953848]}}, {"type": "Feature", "properties": {"norad_id": 29870, "name": "FENGYUN 1C DEB", "group": "fengyun-1c-debris", "lat": 63.789500634732406, "lon": -45.154504544498984, "alt_km": 776.4584001402282, "timestamp": "2025-12-27T23:26:37.634616+00:00", "meta": {"OBJECT_NAME": "FENGYUN 1C DEB", "OBJECT_ID": "1999-025FQ", "EPOCH": "2025-12-27T11:54:18.802944", "MEAN_MOTION": 14.28984806, "ECCENTRICITY": 0.0120724, "INCLINATION": 98.4621, "RA_OF_ASC_NODE": 331.9809, "ARG_OF_PERICENTER": 149.0021, "MEAN_ANOMALY": 325.6663, "EPHEMERIS_TYPE": 0, "CLASSIFICATION_TYPE": "U", "NORAD_CAT_ID": 29870, "ELEMENT_SET_NO": 999, "REV_AT_EPOCH": 98804, "BSTAR": 6.1228e-05, "MEAN_MOTION_DOT": 1.25e-06, "MEAN_MOTION_DDOT": 0}, "tle": {"line1": "1 29870U 99025FQ  25361.49605096  .00000125  00000+0  61228-4 0  9997", "line2": "2 29870  98.4621 331.9809 0120724 149.0021 325.6663 14.28984806988044"}}, "geometry": {"type": "Point", "coordinates": [-45.154504544498984, 63.789500634732406]}}, {"type": "Feature", "properties": {"norad_id": 29871, "name": "FENGYUN 1C DEB", "group": "fengyun-1c-debris", "lat": 47.14966357433082, "lon": -53.91160290222533, "alt_km": 704.5888647055453, "timestamp": "2025-12-27T23:26:37.634627+00:00", "meta": {"OBJECT_NAME": "FENGYUN 1C DEB", "OBJECT_ID": "1999-025FR", "EPOCH": "2025-12-27T10:27:54.196416", "MEAN_MOTION": 14.42729576, "ECCENTRICITY": 0.0059073, "INCLINATION": 98.9747, "RA_OF_ASC_NODE": 315.3283, "ARG_OF_PERICENTER": 64.6427, "MEAN_ANOMALY": 56.4073, "EPHEMERIS_TYPE": 0, "CLASSIFICATION_TYPE": "U", "NORAD_CAT_ID": 29871, "ELEMENT_SET_NO": 999, "REV_AT_EPOCH": 98913, "BSTAR": 0.0011566, "MEAN_MOTION_DOT": 3.886e-05, "MEAN_MOTION_DDOT": 0}, "tle": {"line1": "1 29871U 99025FR  25361.43604394  .00003886  00000+0  11566-2 0  9997", "line2": "2 29871  98.9747 315.3283 0059073  64.6427  56.4073 14.42729576989133"}}, "geometry": {"type": "Point", "coordinates": [-53.91160290222533, 47.14966357433082]}}, {"type": "Feature", "properties": {"norad_id": 29872, "name": "FENGYUN 1C DEB", "group": "fengyun-1c-debris", "lat": 23.162786837648245, "lon": 13.948577918604482, "alt_km": 831.3394098715935, "timestamp": "2025-12-27T23:26:37.634637+00:00", "meta": {"OBJECT_NAME": "FENGYUN 1C DEB", "OBJECT_ID": "1999-025FS", "EPOCH": "2025-12-26T23:58:16.943808", "MEAN_MOTION": 14.39020568, "ECCENTRICITY": 0.0234945, "INCLINATION": 98.345, "RA_OF_ASC_NODE": 16.5965, "ARG_OF_PERICENTER": 270.5581, "MEAN_ANOMALY": 86.8692, "EPHEMERIS_TYPE": 0, "CLASSIFICATION_TYPE": "U", "NORAD_CAT_ID": 29872, "ELEMENT_SET_NO": 999, "REV_AT_EPOCH": 98797, "BSTAR": 0.00061945, "MEAN_MOTION_DOT": 2.588e-05, "MEAN_MOTION_DDOT": 0}, "tle": {"line1": "1 29872U 99025FS  25360.99880722  .00002588  00000+0  61945-3 0  9994", "line2": "2 29872  98.3450  16.5965 0234945 270.5581  86.8692 14.39020568987973"}}, "geometry": {"type": "Point", "coordinates": [13.948577918604482, 23.162786837648245]}}, {"type": "Feature", "properties": {"norad_id": 29873, "name": "FENGYUN 1C DEB", "group": "fengyun-1c-debris", "lat": 22.591186144680893, "lon": -141.47957096457006, "alt_km": 946.1593587483367, "timestamp": "2025-12-27T23:26:37.634647+00:00", "meta": {"OBJECT_NAME": "FENGYUN 1C DEB", "OBJECT_ID": "1999-025FT", "EPOCH": "2025-12-27T08:43:12.666720", "MEAN_MOTION": 13.98156956, "ECCENTRICITY": 0.0092473, "INCLINATION": 99.4416, "RA_OF_ASC_NODE": 221.8596, "ARG_OF_PERICENTER": 158.6858, "MEAN_ANOMALY": 18.8813, "EPHEMERIS_TYPE": 0, "CLASSIFICATION_TYPE": "U", "NORAD_CAT_ID": 29873, "ELEMENT_SET_NO": 999, "REV_AT_EPOCH": 96519, "BSTAR": 0.00051717, "MEAN_MOTION_DOT": 7.17e-06, "MEAN_MOTION_DDOT": 0}, "tle": {"line1": "1 29873U 99025FT  25361.36334105  .00000717  00000+0  51717-3 0  9994", "line2": "2 29873  99.4416 221.8596 0092473 158.6858  18.8813 13.98156956965195"}}, "geometry": {"type": "Point", "coordinates": [-141.47957096457006, 22.591186144680893]}}, {"type": "Feature", "properties": {"norad_id": 29874, "name": "FENGYUN 1C DEB", "group": "fengyun-1c-debris", "lat": 52.13021132967158, "lon": 89.1977273779592, "alt_km": 864.4517250478793, "timestamp": "2025-12-27T23:26:37.634657+00:00", "meta": {"OBJECT_NAME": "FENGYUN 1C DEB", "OBJECT_ID": "1999-025FU", "EPOCH": "2025-12-26T23:22:43.650048", "MEAN_MOTION": 14.29036576, "ECCENTRICITY": 0.0103784, "INCLINATION": 98.3768, "RA_OF_ASC_NODE": 257.3115, "ARG_OF_PERICENTER": 309.5784, "MEAN_ANOMALY": 61.8911, "EPHEMERIS_TYPE": 0, "CLASSIFICATION_TYPE": "U", "NORAD_CAT_ID": 29874, "ELEMENT_SET_NO": 999, "REV_AT_EPOCH": 97051, "BSTAR": 0.0037825, "MEAN_MOTION_DOT": 0.00010118, "MEAN_MOTION_DDOT": 0}, "tle": {"line1": "1 29874U 99025FU  25360.97411632  .00010118  00000+0  37825-2 0  9991", "line2": "2 29874  98.3768 257.3115 0103784 309.5784  61.8911 14.29036576970517"}}, "geometry": {"type": "Point", "coordinates": [89.1977273779592, 52.13021132967158]}}, {"type": "Feature", "properties": {"norad_id": 29875, "name": "FENGYUN 1C DEB", "group": "fengyun-1c-debris", "lat": 66.83335739544192, "lon": -107.03763790207542, "alt_km": 804.5557429160899, "timestamp": "2025-12-27T23:26:37.634667+00:00", "meta": {"OBJECT_NAME": "FENGYUN 1C DEB", "OBJECT_ID": "1999-025FV", "EPOCH": "2025-12-27T02:57:22.251744", "MEAN_MOTION": 14.2488064, "ECCENTRICITY": 0.0082524, "INCLINATION": 98.403, "RA_OF_ASC_NODE": 51.9368, "ARG_OF_PERICENTER": 21.5329, "MEAN_ANOMALY": 32.7902, "EPHEMERIS_TYPE": 0, "CLASSIFICATION_TYPE": "U", "NORAD_CAT_ID": 29875, "ELEMENT_SET_NO": 999, "REV_AT_EPOCH": 98527, "BSTAR": 2.9460732e-05, "MEAN_MOTION_DOT": 3e-07, "MEAN_MOTION_DDOT": 0}, "tle": {"line1": "1 29875U 99025FV  25361.12317421  .00000030  00000+0  29461-4 0  9992", "line2": "2 29875  98.4030  51.9368 0082524  21.5329  32.7902 14.24880640985273"}}, "geometry": {"type": "Point", "coordinates": [-107.03763790207542, 66.83335739544192]}}, {"type": "Feature", "properties": {"norad_id": 29876, "name": "FENGYUN 1C DEB", "group": "fengyun-1c-debris", "lat": 63.42957939492641, "lon": -111.29136112410596, "alt_km": 852.659570532408, "timestamp": "2025-12-27T23:26:37.634677+00:00", "meta": {"OBJECT_NAME": "FENGYUN 1C DEB", "OBJECT_ID": "1999-025FW", "EPOCH": "2025-12-27T09:28:02.200224", "MEAN_MOTION": 14.20306817, "ECCENTRICITY": 0.0060678, "INCLINATION": 98.3313, "RA_OF_ASC_NODE": 51.1222, "ARG_OF_PERICENTER": 334.5298, "MEAN_ANOMALY": 44.3753, "EPHEMERIS_TYPE": 0, "CLASSIFICATION_TYPE": "U", "NORAD_CAT_ID": 29876, "ELEMENT_SET_NO": 999, "REV_AT_EPOCH": 98125, "BSTAR": 0.00015786, "MEAN_MOTION_DOT": 3.03e-06, "MEAN_MOTION_DDOT": 0}, "tle": {"line1": "1 29876U 99025FW  25361.39446991  .00000303  00000+0  15786-3 0  9994", "line2": "2 29876  98.3313  51.1222 0060678 334.5298  44.3753 14.20306817981258"}}, "geometry": {"type": "Point", "coordinates": [-111.29136112410596, 63.42957939492641]}}, {"type": "Feature", "properties": {"norad_id": 29877, "name": "FENGYUN 1C DEB", "group": "fengyun-1c-debris", "lat": -42.446747536950014, "lon": 178.97078686022334, "alt_km": 793.7923770164425, "timestamp": "2025-12-27T23:26:37.634687+00:00", "meta": {"OBJECT_NAME": "FENGYUN 1C DEB", "OBJECT_ID": "1999-025FX", "EPOCH": "2025-12-26T23:04:57.327168", "MEAN_MOTION": 14.24821802, "ECCENTRICITY": 0.0046507, "INCLINATION": 98.5372, "RA_OF_ASC_NODE": 5.8804, "ARG_OF_PERICENTER": 176.5729, "MEAN_ANOMALY": 242.3719, "EPHEMERIS_TYPE": 0, "CLASSIFICATION_TYPE": "U", "NORAD_CAT_ID": 29877, "ELEMENT_SET_NO": 999, "REV_AT_EPOCH": 98176, "BSTAR": 0.00049042, "MEAN_MOTION_DOT": 1.114e-05, "MEAN_MOTION_DDOT": 0}, "tle": {"line1": "1 29877U 99025FX  25360.96177462  .00001114  00000+0  49042-3 0  9994", "line2": "2 29877  98.5372   5.8804 0046507 176.5729 242.3719 14.24821802981764"}}, "geometry": {"type": "Point", "coordinates": [178.97078686022334, -42.446747536950014]}}]}